STARLINK-2078_new
1 17675C 21012BH  21326.11578638 -.00016682  00000-0 -11178-2 0  3267
2 17675  53.0547 253.2162 0002052  59.9237  18.1826 15.06409870    17
STARLINK-2078_old
1 27675C 21012BH  21325.16666083  .00007646  00000-0  51224-3 0  3257
2 27675  53.0552 257.4765 0002099  59.4934 268.6024 15.06394737    15
